NORAD_CAT_ID,OBJECT_NAME,OBJECT_TYPE,EPOCH,MEAN_MOTION,ECCENTRICITY,INCLINATION,RA_OF_ASC_NODE,ARG_OF_PERICENTER,MEAN_ANOMALY,BSTAR,MEAN_MOTION_DOT,MEAN_MOTION_DDOT,TLE_LINE0,TLE_LINE1,TLE_LINE2,SEMIMAJOR_AXIS,PERIOD,APOGEE,PERIGEE,DECAYED
54195.0,STARLINK-5258,PAYLOAD,2023-03-24 11:58:04,15.08876271,0.0001368,53.2186,167.8556,99.0184,261.0963,0.00021265,3.101e-05,0.0,0 STARLINK-5258,1 54195U 22141AQ  23083.49866343  .00003101  00000-0  21265-3 0  9997,2 54195  53.2186 167.8556 0001368  99.0184 261.0963 15.08876271 23005,6917.77,95.435,540.581,538.688,0.0
54195.0,STARLINK-5258,PAYLOAD,2023-03-24 16:44:10,15.08907916,0.0001029,53.218,166.9615,126.2549,233.8538,0.00039566,6.026e-05,0.0,0 STARLINK-5258,1 54195U 22141AQ  23083.69734828  .00006026  00000-0  39566-3 0  9993,2 54195  53.2180 166.9615 0001029 126.2549 233.8538 15.08907916 23036,6917.673,95.433,540.25,538.826,0.0
54195.0,STARLINK-5258,PAYLOAD,2023-03-25 11:48:52,15.08850688,0.0001487,53.2188,163.3949,90.1421,269.9742,-9.7251e-05,-1.836e-05,0.0,0 STARLINK-5258,1 54195U 22141AQ  23084.49227573 -.00001836  00000-0 -97251-4 0  9998,2 54195  53.2188 163.3949 0001487  90.1421 269.9742 15.08850688 23154,6917.848,95.437,540.741,538.684,0.0
54195.0,STARLINK-5258,PAYLOAD,2023-03-25 16:35:00,15.08861553,0.0001289,53.2175,162.5006,110.2163,249.8967,-1.2949e-05,-4.94e-06,0.0,0 STARLINK-5258,1 54195U 22141AQ  23084.69098164 -.00000494  00000-0 -12949-4 0  9992,2 54195  53.2175 162.5006 0001289 110.2163 249.8967 15.08861553 23184,6917.815,95.436,540.571,538.788,0.0
54195.0,STARLINK-5258,PAYLOAD,2023-03-26 05:18:09,15.08824323,0.0001359,53.2182,160.1255,86.1416,273.9731,-0.00046634,-7.699e-05,0.0,0 STARLINK-5258,1 54195U 22141AQ  23085.22094352 -.00007699  00000-0 -46634-3 0  9998,2 54195  53.2182 160.1255 0001359  86.1416 273.9731 15.08824323 23262,6917.928,95.439,540.733,538.853,0.0
54195.0,STARLINK-5258,PAYLOAD,2023-03-26 10:04:22,15.08782366,0.0001793,53.2182,159.2314,106.5117,253.6072,-0.00079307,-0.00012868,0.0,0 STARLINK-5258,1 54195U 22141AQ  23085.41970413 -.00012868  00000-0 -79307-3 0  9997,2 54195  53.2182 159.2314 0001793 106.5117 253.6072 15.08782366 23290,6918.057,95.441,541.162,538.681,0.0
54195.0,STARLINK-5258,PAYLOAD,2023-03-26 16:25:55,15.0879254,0.0001257,53.2181,158.0394,110.7849,249.3278,-0.00095048,-0.00015363,0.0,0 STARLINK-5258,1 54195U 22141AQ  23085.68466777 -.00015363  00000-0 -95048-3 0  9992,2 54195  53.2181 158.0394 0001257 110.7849 249.3278 15.08792540 23338,6918.025,95.441,540.76,539.021,0.0
54195.0,STARLINK-5258,PAYLOAD,2023-03-27 05:08:58,15.08801891,0.000115,53.2183,155.666,55.3033,304.8068,-0.00012782,-2.319e-05,0.0,0 STARLINK-5258,1 54195U 22141AQ  23086.21456650 -.00002319  00000-0 -12782-3 0  9992,2 54195  53.2183 155.6660 0001150  55.3033 304.8068 15.08801891 23413,6917.997,95.44,540.657,539.066,0.0
54195.0,STARLINK-5258,PAYLOAD,2023-03-27 09:55:05,15.08834422,0.0001774,53.2176,154.7653,119.9055,240.2113,4.1766e-05,3.77e-06,0.0,0 STARLINK-5258,1 54195U 22141AQ  23086.41326159  .00000377  00000-0  41766-4 0  9999,2 54195  53.2176 154.7653 0001774 119.9055 240.2113 15.08834422 23443,6917.897,95.438,540.99,538.535,0.0
54195.0,STARLINK-5258,PAYLOAD,2023-03-27 21:02:47,15.08839849,0.0001215,53.2173,152.6872,86.4975,273.6156,7.2736e-05,8.7e-06,0.0,0 STARLINK-5258,1 54195U 22141AQ  23086.87694259  .00000870  00000-0  72736-4 0  9997,2 54195  53.2173 152.6872 0001215  86.4975 273.6156 15.08839849 23286,6917.881,95.438,540.586,538.905,0.0
54195.0,STARLINK-5258,PAYLOAD,2023-03-28 03:24:21,15.0881292,7.78e-05,53.2192,151.4995,115.7034,244.4038,0.00027828,4.141e-05,0.0,0 STARLINK-5258,1 54195U 22141AQ  23087.14191366  .00004141  00000-0  27828-3 0  9995,2 54195  53.2192 151.4995 0000778 115.7034 244.4038 15.08812920 23551,6917.963,95.439,540.366,539.29,0.0
54195.0,STARLINK-5258,PAYLOAD,2023-03-28 12:56:39,15.08828473,0.0001282,53.2189,149.7175,99.4352,260.6785,0.00046659,7.143e-05,0.0,0 STARLINK-5258,1 54195U 22141AQ  23087.53934310  .00007143  00000-0  46659-3 0  9990,2 54195  53.2189 149.7175 0001282  99.4352 260.6785 15.08828473 23615,6917.916,95.438,540.667,538.894,0.0
54195.0,STARLINK-5258,PAYLOAD,2023-03-28 20:53:36,15.08811182,0.0001339,53.2173,148.2314,71.2375,288.8762,0.00052345,8.046e-05,0.0,0 STARLINK-5258,1 54195U 22141AQ  23087.87055794  .00008046  00000-0  52345-3 0  9999,2 54195  53.2173 148.2314 0001339  71.2375 288.8762 15.08811182 23664,6917.968,95.439,540.76,538.907,0.0
54195.0,STARLINK-5258,PAYLOAD,2023-03-29 03:15:08,15.08832883,0.0001424,53.218,147.0439,66.8127,293.3015,0.00020801,3.023e-05,0.0,0 STARLINK-5258,1 54195U 22141AQ  23088.13551717  .00003023  00000-0  20801-3 0  9997,2 54195  53.2180 147.0439 0001424  66.8127 293.3015 15.08832883 23705,6917.902,95.438,540.752,538.782,0.0
54195.0,STARLINK-5258,PAYLOAD,2023-03-29 09:36:42,15.08836358,0.0001621,53.2186,145.8525,85.4142,274.7035,-7.4386e-05,-1.472e-05,0.0,0 STARLINK-5258,1 54195U 22141AQ  23088.40048743 -.00001472  00000-0 -74386-4 0  9993,2 54195  53.2186 145.8525 0001621  85.4142 274.7035 15.08836358 23746,6917.892,95.438,540.878,538.635,0.0
54195.0,STARLINK-5258,PAYLOAD,2023-03-29 11:12:05,15.08838258,0.0001386,53.2177,145.554,84.2639,275.8511,-5.3026e-05,-1.132e-05,0.0,0 STARLINK-5258,1 54195U 22141AQ  23088.46672472 -.00001132  00000-0 -53026-4 0  9992,2 54195  53.2177 145.5540 0001386  84.2639 275.8511 15.08838258 23524,6917.886,95.438,540.71,538.792,0.0
54195.0,STARLINK-5258,PAYLOAD,2023-03-29 15:58:13,15.08850392,0.0001232,53.2177,144.6573,113.2536,246.8586,1.2516e-05,-8.9e-07,0.0,0 STARLINK-5258,1 54195U 22141AQ  23088.66543152 -.00000089  00000-0  12516-4 0  9994,2 54195  53.2177 144.6573 0001232 113.2536 246.8586 15.08850392 23780,6917.849,95.437,540.566,538.861,0.0
54195.0,STARLINK-5258,PAYLOAD,2023-03-30 03:05:56,15.08833823,9.81e-05,53.2186,142.5811,67.3141,292.7955,-0.00017242,-3.03e-05,0.0,0 STARLINK-5258,1 54195U 22141AQ  23089.12912894 -.00003030  00000-0 -17242-3 0  9999,2 54195  53.2186 142.5811 0000981  67.3141 292.7955 15.08833823 23851,6917.899,95.438,540.443,539.086,0.0
54195.0,STARLINK-5258,PAYLOAD,2023-03-30 11:02:51,15.08845172,0.0001574,53.2172,141.0949,57.378,302.7364,-6.1717e-05,-1.27e-05,0.0,0 STARLINK-5258,1 54195U 22141AQ  23089.46031838 -.00001270  00000-0 -61717-4 0  9997,2 54195  53.2172 141.0949 0001574  57.3780 302.7364 15.08845172 23901,6917.865,95.437,540.818,538.641,0.0
54195.0,STARLINK-5258,PAYLOAD,2023-03-30 20:35:10,15.0884069,2.3e-05,53.2171,139.3097,117.7898,242.3118,-0.00021472,-3.703e-05,0.0,0 STARLINK-5258,1 54195U 22141AQ  23089.85775739 -.00003703  00000-0 -21472-3 0  9991,2 54195  53.2171 139.3097 0000230 117.7898 242.3118 15.08840690 23730,6917.878,95.438,539.902,539.584,0.0
54195.0,STARLINK-5258,PAYLOAD,2023-03-31 02:56:43,15.08826112,9.4e-05,53.2175,138.1193,79.6834,280.4264,-3.4187e-05,-8.32e-06,0.0,0 STARLINK-5258,1 54195U 22141AQ  23090.12272413 -.00000832  00000-0 -34187-4 0  9992,2 54195  53.2175 138.1193 0000940  79.6834 280.4264 15.08826112 24001,6917.923,95.438,540.438,539.138,0.0
54195.0,STARLINK-5258,PAYLOAD,2023-03-31 12:29:00,15.08845716,0.000159,53.2173,136.336,74.4494,285.6673,0.00011526,1.547e-05,0.0,0 STARLINK-5258,1 54195U 22141AQ  23090.52014856  .00001547  00000-0  11526-3 0  9994,2 54195  53.2173 136.3360 0001590  74.4494 285.6673 15.08845716 24060,6917.863,95.437,540.828,538.628,0.0
54195.0,STARLINK-5258,PAYLOAD,2023-03-31 20:25:57,15.08840867,0.0001629,53.217,134.8489,61.4742,298.6414,-9.4056e-05,-1.785e-05,0.0,0 STARLINK-5258,1 54195U 22141AQ  23090.85135791 -.00001785  00000-0 -94056-4 0  9998,2 54195  53.2170 134.8489 0001629  61.4742 298.6414 15.08840867 24112,6917.878,95.437,540.87,538.616,0.0
54195.0,STARLINK-5258,PAYLOAD,2023-04-01 09:09:02,15.088395,0.0001314,53.2181,132.4666,86.3351,273.7792,-9.5632e-05,-1.81e-05,0.0,0 STARLINK-5258,1 54195U 22141AQ  23091.38128041 -.00001810  00000-0 -95632-4 0  9997,2 54195  53.2181 132.4666 0001314  86.3351 273.7792 15.08839500 23965,6917.882,95.438,540.656,538.838,0.0
54195.0,STARLINK-5258,PAYLOAD,2023-04-01 13:55:11,15.08843607,0.0001258,53.218,131.5739,93.9654,266.1482,-5.5745e-05,-1.175e-05,0.0,0 STARLINK-5258,1 54195U 22141AQ  23091.57999523 -.00001175  00000-0 -55745-4 0  9994,2 54195  53.2180 131.5739 0001258  93.9654 266.1482 15.08843607 23990,6917.869,95.437,540.605,538.864,0.0
54195.0,STARLINK-5258,PAYLOAD,2023-04-02 12:10:35,15.08846352,0.0001534,53.218,127.4099,105.8564,254.2597,-2.6294e-05,-7.07e-06,0.0,0 STARLINK-5258,1 54195U 22141AQ  23092.50735267 -.00000707  00000-0 -26294-4 0  9998,2 54195  53.2180 127.4099 0001534 105.8564 254.2597 15.08846352 24360,6917.861,95.437,540.787,538.665,0.0
54195.0,STARLINK-5258,PAYLOAD,2023-04-02 13:45:58,15.08849027,0.0001603,53.2185,127.1136,103.7724,256.3447,1.433e-05,-6e-07,0.0,0 STARLINK-5258,1 54195U 22141AQ  23092.57358950 -.00000060  00000-0  14330-4 0  9994,2 54195  53.2185 127.1136 0001603 103.7724 256.3447 15.08849027 24141,6917.853,95.437,540.827,538.609,0.0
54195.0,STARLINK-5258,PAYLOAD,2023-04-03 04:04:27,15.08831887,0.0001532,53.2173,124.4387,94.6402,265.4765,1.9604e-05,2.4e-07,0.0,0 STARLINK-5258,1 54195U 22141AQ  23093.16976087  .00000024  00000-0  19604-4 0  9995,2 54195  53.2173 124.4387 0001532  94.6402 265.4765 15.08831887 24462,6917.905,95.438,540.83,538.71,0.0
54195.0,STARLINK-5258,PAYLOAD,2023-04-03 12:01:22,15.0884247,0.0001475,53.2179,122.954,79.1791,280.9367,2.3133e-05,8e-07,0.0,0 STARLINK-5258,1 54195U 22141AQ  23093.50095558  .00000080  00000-0  23133-4 0  9992,2 54195  53.2179 122.9540 0001475  79.1791 280.9367 15.08842470 24513,6917.873,95.437,540.758,538.717,0.0
54195.0,STARLINK-5258,PAYLOAD,2023-04-03 18:22:55,15.08838023,0.0001467,53.2172,121.7629,87.6015,272.5145,-1.5985e-05,-5.42e-06,0.0,0 STARLINK-5258,1 54195U 22141AQ  23093.76591919 -.00000542  00000-0 -15985-4 0  9993,2 54195  53.2172 121.7629 0001467  87.6015 272.5145 15.08838023 24324,6917.886,95.438,540.766,538.737,0.0
